#aV2009  1 21  0  0   .00000000      96 DD+AD WGS84 FIT  NGA
## 1515 259200.00000000   900.00000000 54852  .0000000000000
+   31     2  3  4  5  6  7  8  9 10 11 12 13 14 15 16 17 18
+         19 20 21 22 23 24 25 26 27 28 29 30 31 32  0  0  0
+          0  0  0  0  0  0  0  0  0  0  0  0  0  0  0  0  0
+          0  0  0  0  0  0  0  0  0  0  0  0  0  0  0  0  0
+          0  0  0  0  0  0  0  0  0  0  0  0  0  0  0  0  0
++         0  0  0  0  0  0  0  0  0  0  0  0  0  0  0  0  0
++         0  0  0  0  0  0  0  0  0  0  0  0  0  0  0  0  0
++         0  0  0  0  0  0  0  0  0  0  0  0  0  0  0  0  0
++         0  0  0  0  0  0  0  0  0  0  0  0  0  0  0  0  0
++         0  0  0  0  0  0  0  0  0  0  0  0  0  0  0  0  0
%c cc cc ccc ccc cccc cccc cccc cccc ccccc ccccc ccccc ccccc
%c cc cc ccc ccc cccc cccc cccc cccc ccccc ccccc ccccc ccccc
%f  0.0000000  0.000000000  0.00000000000  0.000000000000000
%f  0.0000000  0.000000000  0.00000000000  0.000000000000000
%i    0    0    0    0      0      0      0      0         0
%i    0    0    0    0      0      0      0      0         0
/*      NGA, ST. LOUIS,MO.                                  
/*   EPHEMERIS COMPUTED FROM  3 DAYS OF DATA                
/* CCCCCCCCCCCCCCCCCCCCCCCCCCCCCCCCCCCCCCCCCCCCCCCCCCCCCCCCC
/* CCCCCCCCCCCCCCCCCCCCCCCCCCCCCCCCCCCCCCCCCCCCCCCCCCCCCCCCC
*  2009  1 21 11 45   .00000000                                                 
P  2 -15263.643771  -3662.043872 -21539.148743    160.620003                    
V  2   7297.819552 -26147.938072  -1117.758405      -.017422                    
P  3  22480.520112   7011.311474  12320.085526    341.989595                    
V  3  10267.439998  12715.677789 -25001.578534       .052199                    
P  4  -8753.043934 -17022.658711 -18385.934993   -307.602802                    
V  4   8775.295125 -21659.435566  16356.922801      -.135761                    
P  5 -17945.413143  15387.551714 -12280.278481   -575.696700                    
V  5 -15293.935622   2250.520451  25912.961835      -.527685                    
P  6  22026.576976  11239.885273   9913.989934     85.203469                    
V  6   6620.373061  10923.603023 -27584.733697      -.125390                    
P  7   6613.333276 -25612.459383   1587.702070     23.216035                    
V  7   3232.361205  -1152.807472 -31846.068452      -.001781                    
P  8  -1837.408372 -22118.492481  14146.181465   -187.265004                    
V  8   8042.757954 -16445.696119 -25052.019925      -.015111                    
P  9 -13913.671122  17952.460628  13032.665185     36.147236                    
V  9   2416.444439 -17601.524101  25685.275953       .019828                    
P 10 -26016.529497    926.718489  -6269.333494     -9.857670                    
V 10   7040.020549  -3922.311523 -30197.990799      -.006044                    
P 11  12260.929172 -19351.362854  12952.752240      9.897147                    
V 11   2672.073856  17417.326858  23496.740288      -.010887                    
P 12 -21501.554348  11912.976993  -9854.286650   -323.597140                    
V 12 -12876.167256    426.670374  28495.547438       .034198                    
P 13    525.682556 -18597.623957 -19078.177846    285.770224                    
V 13  16037.470135  17728.481409 -16932.186559       .013974                    
P 14  15806.035428  21205.924495   3124.157008   -165.282628                    
V 14  -3855.067759  -1668.401138  31972.695079       .051995                    
P 15 -17674.454427   1752.090138  19792.651244   -245.367925                    
V 15 -16537.116034 -18871.129239 -13071.403931      -.055531                    
P 16  23600.245476   3367.936477 -11882.012598     80.453751                    
V 16 -14339.933183   5119.038735 -26675.598689      -.026991                    
P 17 -14439.273859 -21712.086006   5598.401329     44.826571                    
V 17   6643.698068   3435.886551  30545.569625       .009036                    
P 18  -2418.642055  16088.997418  21150.099409    -90.989745                    
V 18 -26143.488151   4370.925744  -6739.726930       .036438                    
P 19  16690.814771  -2479.427571  20626.752370     33.552582                    
V 19  15745.033063  20713.339062 -10059.186661      -.004905                    
P 20  19057.200431 -13993.992778 -12175.906405     93.070302                    
V 20  15531.476648  -1129.500068  25915.290622      -.011056                    
P 21  -3174.403605  25271.821103   6507.253706     32.853912                    
V 21  -6295.655418   6524.456952 -30047.233355      -.017956                    
P 22  10426.792155  13285.030606  20668.594713    206.351941                    
V 22 -25294.292704   5852.583457   9010.010047      -.004576                    
P 23   9349.333984 -11899.409836 -21857.702680    385.524288                    
V 23  19055.268067  20009.404680  -3010.006793       .007668                    
P 24 -13259.352634  22035.289696  -7045.852171    159.279078                    
V 24    464.779542  -9473.633465 -29650.463321       .029800                    
P 25   8784.523881 -24488.142582  -5459.503573    189.054629                    
V 25    912.844759   7684.735615 -30780.501200       .261095                    
P 26 -19561.619937  -6414.565991  16570.135251     38.090534                    
V 26 -13261.263844 -17264.862590 -21168.101255       .032887                    
P 27  -8144.622210 -18455.413755  17930.586463     18.080171                    
V 27   6266.121082 -20523.436366 -19092.690245       .031254                    
P 28  -8299.376795 -13620.810513  21698.345461    -23.720057                    
V 28  25918.775841  -5596.210649   6199.688840       .001886                    
P 29  -1553.348513  18315.406173 -19084.275637    -16.531029                    
V 29 -17310.111002 -17306.394722 -15084.319221       .027904                    
P 30  -9992.375245  16519.929117 -18563.666339    121.184377                    
V 30 -22491.142469   4594.573542  16599.758992       .024521                    
P 31   9620.425604  14713.579514 -19656.048958    -48.557135                    
V 31  -8449.699401  24024.741893  13817.591433      -.014191                    
P 32  24670.532012  -7431.635205  -5504.111977    301.922157                    
V 32   7887.734811   1709.683397  30983.436439      -.028536                    
EOF
